ONEWEB-0233             
1 48795U 21045AE  24277.78350697 -.00000442  00000+0 -12073-2 0  9998
2 48795  87.9118  22.9113 0002080 101.3186 258.8178 13.15544486162590
ONEWEB-0190             
1 48796U 21045AF  24277.84610619  .00000044  00000+0  84054-4 0  9995
2 48796  87.9126  22.8602 0002625 113.9795 246.1610 13.15548404162676
ONEWEB-0236             
1 48797U 21045AG  24277.78747528 -.00000125  00000+0 -36535-3 0  9991
2 48797  87.9130  22.8699 0001943 100.1171 260.0179 13.15548120162553
ONEWEB-0248             
1 48798U 21045AH  24277.80014138  .00000010  00000+0 -72857-5 0  9990
2 48798  87.9118  22.8482 0002592 101.0582 259.0840 13.15550628162714
ONEWEB-0225             
1 48799U 21045AJ  24277.82233095  .00000231  00000+0  57990-3 0  9991
2 48799  87.9124  22.8613 0002187 106.9230 253.2140 13.15549873162722
ONEWEB-0215             
1 48800U 21045AK  24277.79220732 -.00000043  00000+0 -14867-3 0  9993
2 48800  87.9119  22.8350 0002638 104.9629 255.1794 13.15547488162599
ONEWEB-0216             
1 48801U 21045AL  24277.80173040 -.00000001  00000+0 -36583-4 0  9999
2 48801  87.9119  22.8752 0001716 111.4915 248.6399 13.15549956162605
ONEWEB-0239             
1 48802U 21045AM  24277.80648957  .00000057  00000+0  11795-3 0  9990
2 48802  87.9129  22.8597 0002735 101.0535 259.0903 13.15548106162646
